STARLINK-2507_new
1 18316C 21036AS  21326.17690036  .00005005  00000-0  33536-3 0  3267
2 18316  53.0544 292.9572 0001852  63.3201   6.3183 15.06394645    17
STARLINK-2507_old
1 28316C 21036AS  21325.11161879 -.00000931  00000-0 -62396-4 0  3259
2 28316  53.0547 297.7391 0001764  62.9504 346.4564 15.06389073    15
